IRIDIUM 63              
1 25286U 98021B   26002.03338791  .00000755  00000+0  24936-3 0  9990
2 25286  86.3982 358.6965 0002175  82.8161 277.3283 14.36755676452399
IRIDIUM 69              
1 25319U 98026A   26002.05777939  .00000775  00000+0  23405-3 0  9997
2 25319  86.3969  11.3463 0004588  88.7191 271.4535 14.41238259451703
IRIDIUM 71              
1 25320U 98026B   26002.25144682  .00000633  00000+0  18947-3 0  9992
2 25320  86.3971   5.9355 0003698 119.7354 240.4214 14.41333593452263
IRIDIUM 73              
1 25344U 98032C   26002.31540456  .00001370  00000+0  33410-3 0  9992
2 25344  86.4422 322.2444 0002808  76.2074 283.9445 14.52025233459450
IRIDIUM 82              
1 25467U 98051A   26002.08198636  .00066467  00000+0  11622-2 0  9990
2 25467  86.3589  10.8507 0055946 252.3916 107.1227 15.48612944454549
